{
  "type": "FeatureCollection",
  "features": [
    {
      "type": "Feature",
      "properties": { "suburb_name": "Sydney", "postcode": 2000 },
      "geometry": {
        "type": "Polygon",
        "coordinates": [[
          [151.2000, -33.8600], [151.2050, -33.8580], [151.2100, -33.8590],
          [151.2130, -33.8620], [151.2150, -33.8660], [151.2140, -33.8700],
          [151.2110, -33.8740], [151.2070, -33.8760], [151.2030, -33.8750],
          [151.1990, -33.8720], [151.1970, -33.8680], [151.1980, -33.8640],
          [151.2000, -33.8600]
        ]]
      }
    },
    {
      "type": "Feature",
      "properties": { "suburb_name": "Surry Hills", "postcode": 2010 },
      "geometry": {
        "type": "Polygon",
        "coordinates": [[
          [151.2050, -33.8760], [151.2100, -33.8740], [151.2140, -33.8760],
          [151.2170, -33.8800], [151.2180, -33.8850], [151.2160, -33.8900],
          [151.2120, -33.8930], [151.2070, -33.8920], [151.2030, -33.8890],
          [151.2010, -33.8850], [151.2020, -33.8800], [151.2050, -33.8760]
        ]]
      }
    },
    {
      "type": "Feature",
      "properties": { "suburb_name": "Newtown", "postcode": 2042 },
      "geometry": {
        "type": "Polygon",
        "coordinates": [[
          [151.1750, -33.8880], [151.1800, -33.8860], [151.1850, -33.8870],
          [151.1890, -33.8900], [151.1910, -33.8950], [151.1900, -33.9000],
          [151.1870, -33.9040], [151.1820, -33.9060], [151.1770, -33.9050],
          [151.1730, -33.9020], [151.1710, -33.8970], [151.1720, -33.8920],
          [151.1750, -33.8880]
        ]]
      }
    },
    {
      "type": "Feature",
      "properties": { "suburb_name": "Bondi", "postcode": 2026 },
      "geometry": {
        "type": "Polygon",
        "coordinates": [[
          [151.2550, -33.8850], [151.2600, -33.8830], [151.2650, -33.8840],
          [151.2690, -33.8870], [151.2710, -33.8920], [151.2700, -33.8970],
          [151.2670, -33.9010], [151.2620, -33.9030], [151.2570, -33.9020],
          [151.2530, -33.8990], [151.2510, -33.8940], [151.2520, -33.8890],
          [151.2550, -33.8850]
        ]]
      }
    },
    {
      "type": "Feature",
      "properties": { "suburb_name": "Bondi Beach", "postcode": 2026 },
      "geometry": {
        "type": "Polygon",
        "coordinates": [[
          [151.2680, -33.8880], [151.2720, -33.8860], [151.2760, -33.8870],
          [151.2790, -33.8900], [151.2800, -33.8940], [151.2790, -33.8980],
          [151.2760, -33.9010], [151.2720, -33.9020], [151.2680, -33.9010],
          [151.2650, -33.8980], [151.2640, -33.8940], [151.2650, -33.8900],
          [151.2680, -33.8880]
        ]]
      }
    },
    {
      "type": "Feature",
      "properties": { "suburb_name": "Manly", "postcode": 2095 },
      "geometry": {
        "type": "Polygon",
        "coordinates": [[
          [151.2780, -33.7900], [151.2830, -33.7880], [151.2880, -33.7890],
          [151.2920, -33.7920], [151.2940, -33.7970], [151.2930, -33.8020],
          [151.2900, -33.8060], [151.2850, -33.8080], [151.2800, -33.8070],
          [151.2760, -33.8040], [151.2740, -33.7990], [151.2750, -33.7940],
          [151.2780, -33.7900]
        ]]
      }
    },
    {
      "type": "Feature",
      "properties": { "suburb_name": "Chatswood", "postcode": 2067 },
      "geometry": {
        "type": "Polygon",
        "coordinates": [[
          [151.1750, -33.7900], [151.1800, -33.7880], [151.1850, -33.7890],
          [151.1890, -33.7920], [151.1910, -33.7970], [151.1900, -33.8020],
          [151.1870, -33.8060], [151.1820, -33.8080], [151.1770, -33.8070],
          [151.1730, -33.8040], [151.1710, -33.7990], [151.1720, -33.7940],
          [151.1750, -33.7900]
        ]]
      }
    },
    {
      "type": "Feature",
      "properties": { "suburb_name": "Parramatta", "postcode": 2150 },
      "geometry": {
        "type": "Polygon",
        "coordinates": [[
          [151.0000, -33.8100], [151.0060, -33.8080], [151.0120, -33.8090],
          [151.0170, -33.8120], [151.0200, -33.8170], [151.0190, -33.8220],
          [151.0150, -33.8260], [151.0100, -33.8280], [151.0040, -33.8270],
          [150.9990, -33.8240], [150.9960, -33.8190], [150.9970, -33.8140],
          [151.0000, -33.8100]
        ]]
      }
    },
    {
      "type": "Feature",
      "properties": { "suburb_name": "Pyrmont", "postcode": 2009 },
      "geometry": {
        "type": "Polygon",
        "coordinates": [[
          [151.1900, -33.8680], [151.1950, -33.8660], [151.1990, -33.8670],
          [151.2020, -33.8700], [151.2030, -33.8740], [151.2020, -33.8780],
          [151.1990, -33.8810], [151.1950, -33.8820], [151.1910, -33.8810],
          [151.1880, -33.8780], [151.1870, -33.8740], [151.1880, -33.8700],
          [151.1900, -33.8680]
        ]]
      }
    },
    {
      "type": "Feature",
      "properties": { "suburb_name": "Paddington", "postcode": 2021 },
      "geometry": {
        "type": "Polygon",
        "coordinates": [[
          [151.2200, -33.8800], [151.2250, -33.8780], [151.2300, -33.8790],
          [151.2340, -33.8820], [151.2360, -33.8870], [151.2350, -33.8920],
          [151.2320, -33.8960], [151.2270, -33.8980], [151.2220, -33.8970],
          [151.2180, -33.8940], [151.2160, -33.8890], [151.2170, -33.8840],
          [151.2200, -33.8800]
        ]]
      }
    },
    {
      "type": "Feature",
      "properties": { "suburb_name": "Redfern", "postcode": 2016 },
      "geometry": {
        "type": "Polygon",
        "coordinates": [[
          [151.2000, -33.8900], [151.2050, -33.8880], [151.2100, -33.8890],
          [151.2140, -33.8920], [151.2160, -33.8970], [151.2150, -33.9020],
          [151.2120, -33.9060], [151.2070, -33.9080], [151.2020, -33.9070],
          [151.1980, -33.9040], [151.1960, -33.8990], [151.1970, -33.8940],
          [151.2000, -33.8900]
        ]]
      }
    },
    {
      "type": "Feature",
      "properties": { "suburb_name": "Glebe", "postcode": 2037 },
      "geometry": {
        "type": "Polygon",
        "coordinates": [[
          [151.1800, -33.8750], [151.1850, -33.8730], [151.1900, -33.8740],
          [151.1940, -33.8770], [151.1960, -33.8820], [151.1950, -33.8870],
          [151.1920, -33.8910], [151.1870, -33.8930], [151.1820, -33.8920],
          [151.1780, -33.8890], [151.1760, -33.8840], [151.1770, -33.8790],
          [151.1800, -33.8750]
        ]]
      }
    },
    {
      "type": "Feature",
      "properties": { "suburb_name": "Balmain", "postcode": 2041 },
      "geometry": {
        "type": "Polygon",
        "coordinates": [[
          [151.1700, -33.8550], [151.1750, -33.8530], [151.1800, -33.8540],
          [151.1840, -33.8570], [151.1860, -33.8620], [151.1850, -33.8670],
          [151.1820, -33.8710], [151.1770, -33.8730], [151.1720, -33.8720],
          [151.1680, -33.8690], [151.1660, -33.8640], [151.1670, -33.8590],
          [151.1700, -33.8550]
        ]]
      }
    },
    {
      "type": "Feature",
      "properties": { "suburb_name": "North Sydney", "postcode": 2060 },
      "geometry": {
        "type": "Polygon",
        "coordinates": [[
          [151.2000, -33.8350], [151.2050, -33.8330], [151.2100, -33.8340],
          [151.2140, -33.8370], [151.2160, -33.8420], [151.2150, -33.8470],
          [151.2120, -33.8510], [151.2070, -33.8530], [151.2020, -33.8520],
          [151.1980, -33.8490], [151.1960, -33.8440], [151.1970, -33.8390],
          [151.2000, -33.8350]
        ]]
      }
    },
    {
      "type": "Feature",
      "properties": { "suburb_name": "Neutral Bay", "postcode": 2089 },
      "geometry": {
        "type": "Polygon",
        "coordinates": [[
          [151.2150, -33.8280], [151.2200, -33.8260], [151.2250, -33.8270],
          [151.2290, -33.8300], [151.2310, -33.8350], [151.2300, -33.8400],
          [151.2270, -33.8440], [151.2220, -33.8460], [151.2170, -33.8450],
          [151.2130, -33.8420], [151.2110, -33.8370], [151.2120, -33.8320],
          [151.2150, -33.8280]
        ]]
      }
    },
    {
      "type": "Feature",
      "properties": { "suburb_name": "Mosman", "postcode": 2088 },
      "geometry": {
        "type": "Polygon",
        "coordinates": [[
          [151.2350, -33.8200], [151.2400, -33.8180], [151.2450, -33.8190],
          [151.2490, -33.8220], [151.2510, -33.8270], [151.2500, -33.8320],
          [151.2470, -33.8360], [151.2420, -33.8380], [151.2370, -33.8370],
          [151.2330, -33.8340], [151.2310, -33.8290], [151.2320, -33.8240],
          [151.2350, -33.8200]
        ]]
      }
    },
    {
      "type": "Feature",
      "properties": { "suburb_name": "Randwick", "postcode": 2031 },
      "geometry": {
        "type": "Polygon",
        "coordinates": [[
          [151.2350, -33.9100], [151.2400, -33.9080], [151.2450, -33.9090],
          [151.2490, -33.9120], [151.2510, -33.9170], [151.2500, -33.9220],
          [151.2470, -33.9260], [151.2420, -33.9280], [151.2370, -33.9270],
          [151.2330, -33.9240], [151.2310, -33.9190], [151.2320, -33.9140],
          [151.2350, -33.9100]
        ]]
      }
    },
    {
      "type": "Feature",
      "properties": { "suburb_name": "Coogee", "postcode": 2034 },
      "geometry": {
        "type": "Polygon",
        "coordinates": [[
          [151.2500, -33.9200], [151.2550, -33.9180], [151.2600, -33.9190],
          [151.2640, -33.9220], [151.2660, -33.9270], [151.2650, -33.9320],
          [151.2620, -33.9360], [151.2570, -33.9380], [151.2520, -33.9370],
          [151.2480, -33.9340], [151.2460, -33.9290], [151.2470, -33.9240],
          [151.2500, -33.9200]
        ]]
      }
    },
    {
      "type": "Feature",
      "properties": { "suburb_name": "Maroubra", "postcode": 2035 },
      "geometry": {
        "type": "Polygon",
        "coordinates": [[
          [151.2400, -33.9400], [151.2450, -33.9380], [151.2500, -33.9390],
          [151.2540, -33.9420], [151.2560, -33.9470], [151.2550, -33.9520],
          [151.2520, -33.9560], [151.2470, -33.9580], [151.2420, -33.9570],
          [151.2380, -33.9540], [151.2360, -33.9490], [151.2370, -33.9440],
          [151.2400, -33.9400]
        ]]
      }
    },
    {
      "type": "Feature",
      "properties": { "suburb_name": "Cronulla", "postcode": 2230 },
      "geometry": {
        "type": "Polygon",
        "coordinates": [[
          [151.1450, -34.0500], [151.1500, -34.0480], [151.1550, -34.0490],
          [151.1590, -34.0520], [151.1610, -34.0570], [151.1600, -34.0620],
          [151.1570, -34.0660], [151.1520, -34.0680], [151.1470, -34.0670],
          [151.1430, -34.0640], [151.1410, -34.0590], [151.1420, -34.0540],
          [151.1450, -34.0500]
        ]]
      }
    },
    {
      "type": "Feature",
      "properties": { "suburb_name": "Hurstville", "postcode": 2220 },
      "geometry": {
        "type": "Polygon",
        "coordinates": [[
          [151.0950, -33.9650], [151.1000, -33.9630], [151.1050, -33.9640],
          [151.1090, -33.9670], [151.1110, -33.9720], [151.1100, -33.9770],
          [151.1070, -33.9810], [151.1020, -33.9830], [151.0970, -33.9820],
          [151.0930, -33.9790], [151.0910, -33.9740], [151.0920, -33.9690],
          [151.0950, -33.9650]
        ]]
      }
    },
    {
      "type": "Feature",
      "properties": { "suburb_name": "Bankstown", "postcode": 2200 },
      "geometry": {
        "type": "Polygon",
        "coordinates": [[
          [151.0250, -33.9150], [151.0300, -33.9130], [151.0350, -33.9140],
          [151.0390, -33.9170], [151.0410, -33.9220], [151.0400, -33.9270],
          [151.0370, -33.9310], [151.0320, -33.9330], [151.0270, -33.9320],
          [151.0230, -33.9290], [151.0210, -33.9240], [151.0220, -33.9190],
          [151.0250, -33.9150]
        ]]
      }
    },
    {
      "type": "Feature",
      "properties": { "suburb_name": "Liverpool", "postcode": 2170 },
      "geometry": {
        "type": "Polygon",
        "coordinates": [[
          [150.9150, -33.9150], [150.9200, -33.9130], [150.9250, -33.9140],
          [150.9290, -33.9170], [150.9310, -33.9220], [150.9300, -33.9270],
          [150.9270, -33.9310], [150.9220, -33.9330], [150.9170, -33.9320],
          [150.9130, -33.9290], [150.9110, -33.9240], [150.9120, -33.9190],
          [150.9150, -33.9150]
        ]]
      }
    },
    {
      "type": "Feature",
      "properties": { "suburb_name": "Penrith", "postcode": 2750 },
      "geometry": {
        "type": "Polygon",
        "coordinates": [[
          [150.6850, -33.7450], [150.6900, -33.7430], [150.6950, -33.7440],
          [150.6990, -33.7470], [150.7010, -33.7520], [150.7000, -33.7570],
          [150.6970, -33.7610], [150.6920, -33.7630], [150.6870, -33.7620],
          [150.6830, -33.7590], [150.6810, -33.7540], [150.6820, -33.7490],
          [150.6850, -33.7450]
        ]]
      }
    },
    {
      "type": "Feature",
      "properties": { "suburb_name": "Blacktown", "postcode": 2148 },
      "geometry": {
        "type": "Polygon",
        "coordinates": [[
          [150.9000, -33.7650], [150.9050, -33.7630], [150.9100, -33.7640],
          [150.9140, -33.7670], [150.9160, -33.7720], [150.9150, -33.7770],
          [150.9120, -33.7810], [150.9070, -33.7830], [150.9020, -33.7820],
          [150.8980, -33.7790], [150.8960, -33.7740], [150.8970, -33.7690],
          [150.9000, -33.7650]
        ]]
      }
    },
    {
      "type": "Feature",
      "properties": { "suburb_name": "Ryde", "postcode": 2112 },
      "geometry": {
        "type": "Polygon",
        "coordinates": [[
          [151.0950, -33.8100], [151.1000, -33.8080], [151.1050, -33.8090],
          [151.1090, -33.8120], [151.1110, -33.8170], [151.1100, -33.8220],
          [151.1070, -33.8260], [151.1020, -33.8280], [151.0970, -33.8270],
          [151.0930, -33.8240], [151.0910, -33.8190], [151.0920, -33.8140],
          [151.0950, -33.8100]
        ]]
      }
    },
    {
      "type": "Feature",
      "properties": { "suburb_name": "Epping", "postcode": 2121 },
      "geometry": {
        "type": "Polygon",
        "coordinates": [[
          [151.0750, -33.7700], [151.0800, -33.7680], [151.0850, -33.7690],
          [151.0890, -33.7720], [151.0910, -33.7770], [151.0900, -33.7820],
          [151.0870, -33.7860], [151.0820, -33.7880], [151.0770, -33.7870],
          [151.0730, -33.7840], [151.0710, -33.7790], [151.0720, -33.7740],
          [151.0750, -33.7700]
        ]]
      }
    },
    {
      "type": "Feature",
      "properties": { "suburb_name": "Strathfield", "postcode": 2135 },
      "geometry": {
        "type": "Polygon",
        "coordinates": [[
          [151.0800, -33.8700], [151.0850, -33.8680], [151.0900, -33.8690],
          [151.0940, -33.8720], [151.0960, -33.8770], [151.0950, -33.8820],
          [151.0920, -33.8860], [151.0870, -33.8880], [151.0820, -33.8870],
          [151.0780, -33.8840], [151.0760, -33.8790], [151.0770, -33.8740],
          [151.0800, -33.8700]
        ]]
      }
    },
    {
      "type": "Feature",
      "properties": { "suburb_name": "Burwood", "postcode": 2134 },
      "geometry": {
        "type": "Polygon",
        "coordinates": [[
          [151.1000, -33.8750], [151.1050, -33.8730], [151.1100, -33.8740],
          [151.1140, -33.8770], [151.1160, -33.8820], [151.1150, -33.8870],
          [151.1120, -33.8910], [151.1070, -33.8930], [151.1020, -33.8920],
          [151.0980, -33.8890], [151.0960, -33.8840], [151.0970, -33.8790],
          [151.1000, -33.8750]
        ]]
      }
    },
    {
      "type": "Feature",
      "properties": { "suburb_name": "Ashfield", "postcode": 2131 },
      "geometry": {
        "type": "Polygon",
        "coordinates": [[
          [151.1200, -33.8850], [151.1250, -33.8830], [151.1300, -33.8840],
          [151.1340, -33.8870], [151.1360, -33.8920], [151.1350, -33.8970],
          [151.1320, -33.9010], [151.1270, -33.9030], [151.1220, -33.9020],
          [151.1180, -33.8990], [151.1160, -33.8940], [151.1170, -33.8890],
          [151.1200, -33.8850]
        ]]
      }
    }
  ]
}
